IRIDIUM 166             
1 43570U 18061B   25129.26553745  .00000146  00000+0  45233-4 0  9992
2 43570  86.4004 225.4832 0002535  99.0202 261.1281 14.34219162355508
IRIDIUM 158             
1 43571U 18061C   25129.30359405  .00000283  00000+0  94092-4 0  9994
2 43571  86.4006 225.4771 0002202 100.8020 259.3424 14.34218231355473
IRIDIUM 165             
1 43572U 18061D   25129.25920897  .00000432  00000+0  14722-3 0  9995
2 43572  86.4007 225.5342 0002487  93.9321 266.2159 14.34221028355493
IRIDIUM 155             
1 43573U 18061E   25129.36067774  .00000040  00000+0  73265-5 0  9998
2 43573  86.4003 225.3810 0002340 103.5957 256.5500 14.34217653355489
IRIDIUM 154             
1 43574U 18061F   25129.27187684  .00000312  00000+0  10437-3 0  9994
2 43574  86.4006 225.5314 0002247  97.2964 262.8487 14.34216728355517
IRIDIUM 163             
1 43575U 18061G   25129.32262189  .00000075  00000+0  19668-4 0  9997
2 43575  86.4004 225.4386 0002093  97.1192 263.0242 14.34217665355495
IRIDIUM 156             
1 43576U 18061H   25129.36701986  .00000401  00000+0  13605-3 0  9992
2 43576  86.4004 225.4270 0002429 104.2666 255.8800 14.34219224355488
IRIDIUM 164             
1 43577U 18061J   25129.27822515 -.00000016  00000+0 -12775-4 0  9997
2 43577  86.4007 225.4979 0002483  94.5378 265.6101 14.34217238355520
